KUIPER-00016            
1 63732U 25088J   25229.91670139 -.00040858  00000+0 -49261-2 0  9990
2 63732  51.8978 292.7275 0010100 122.6384 276.6230 14.83423082  5818
KUIPER-00018            
1 63733U 25088K   25229.91670139  .00002283  00000+0  14622-3 0  9993
2 63733  51.8797 285.1214 0011161 122.3169 188.9980 15.12580377  4981
KUIPER-00019            
1 63734U 25088L   25229.91670139  .00007112  00000+0  39477-3 0  9995
2 63734  51.8763 283.9666 0007670 135.2657  20.5499 15.14740570  5574
KUIPER-00020            
1 63735U 25088M   25229.91670139 -.00042268  00000+0 -26909-2 0  9994
2 63735  51.8873 286.2775 0008091 129.8567 261.2333 15.08264994  1998
KUIPER-00021            
1 63736U 25088N   25229.91670139 -.00839347  00000+0 -57920-1 0  9993
2 63736  51.8789 287.0332 0007553  98.5584 343.0700 15.07942318  5483
KUIPER-00023            
1 63737U 25088P   25229.91670139 -.00007125  00000+0 -48824-3 0  9990
2 63737  51.8900 288.0325 0010280 132.9787 193.0186 15.04111618  4603
KUIPER-00024            
1 63738U 25088Q   25229.91670139 -.00781662  00000+0 -30315-1 0  9990
2 63738  51.8787 281.4638 0003021 124.8391 133.9609 15.28085602  5509
KUIPER-00025            
1 63739U 25088R   25229.88800159  .00006519  00000+0  39186-3 0  9990
2 63739  51.8845 285.4050 0009272 118.0537 242.1378 15.11986090 17588
